0 SL-14 R/B
1 24731U 97006G   13282.43336372  .00000000  00000-0 -59256-4 0   810
2 24731 082.6050 009.5480 0040522 312.9569 096.5787 12.55232423762921
0 SL-14 R/B
1 24731U 97006G   13287.20787770  .00000040  00000-0  18325-3 0   838
2 24731 082.6047 006.5514 0040426 302.0046 072.0959 12.55232128763524
0 SL-14 R/B
1 24731U 97006G   13289.36696848  .00000042  00000-0  19400-3 0   840
2 24731 082.6042 005.1963 0040424 297.0388 108.8076 12.55232193763791
0 SL-14 R/B
1 24731U 97006G   13291.53777265  .00000040  00000-0  18332-3 0   857
2 24731 082.6037 003.8336 0040416 292.0506 198.4470 12.55232471764065
0 SL-14 R/B
1 24731U 97006G   13293.85048650  .00000020  00000-0  62092-4 0   865
2 24731 082.6035 002.3818 0040414 286.7407 209.3583 12.55232781764353
